CCSDS_OMM_VERS = 2.0
CREATION_DATE  = 
ORIGINATOR     = 

OBJECT_NAME    = H-2A R/B
OBJECT_ID      = 2012-025E
CENTER_NAME    = EARTH
REF_FRAME      = TEME
TIME_SYSTEM    = UTC
MEAN_ELEMENT_THEORY = SGP/SGP4

EPOCH          = 2025-11-08T10:07:20.832096
MEAN_MOTION    = 14.94073772
ECCENTRICITY   = .0045323
INCLINATION    = 98.4546
RA_OF_ASC_NODE = 265.0253
ARG_OF_PERICENTER = 351.5793
MEAN_ANOMALY   = 8.4659

EPHEMERIS_TYPE = 0
CLASSIFICATION_TYPE = U
NORAD_CAT_ID   = 38341
ELEMENT_SET_NO = 999
REV_AT_EPOCH   = 73010
BSTAR          = .5932E-3
MEAN_MOTION_DOT = .6399E-4
MEAN_MOTION_DDOT = 0

CCSDS_OMM_VERS = 2.0
CREATION_DATE  = 
ORIGINATOR     = 

OBJECT_NAME    = SHIJIAN-16 (SJ-16)
OBJECT_ID      = 2013-057A
CENTER_NAME    = EARTH
REF_FRAME      = TEME
TIME_SYSTEM    = UTC
MEAN_ELEMENT_THEORY = SGP/SGP4

EPOCH          = 2025-11-08T12:52:44.721408
MEAN_MOTION    = 14.91803363
ECCENTRICITY   = .0016228
INCLINATION    = 74.9742
RA_OF_ASC_NODE = 54.3604
ARG_OF_PERICENTER = 43.2902
MEAN_ANOMALY   = 316.9557

EPHEMERIS_TYPE = 0
CLASSIFICATION_TYPE = U
NORAD_CAT_ID   = 39358
ELEMENT_SET_NO = 999
REV_AT_EPOCH   = 65343
BSTAR          = .32161E-3
MEAN_MOTION_DOT = .3225E-4
MEAN_MOTION_DDOT = 0

CCSDS_OMM_VERS = 2.0
CREATION_DATE  = 
ORIGINATOR     = 

OBJECT_NAME    = SL-4 R/B
OBJECT_ID      = 2014-021B
CENTER_NAME    = EARTH
REF_FRAME      = TEME
TIME_SYSTEM    = UTC
MEAN_ELEMENT_THEORY = SGP/SGP4

EPOCH          = 2025-11-07T22:31:49.979424
MEAN_MOTION    = 15.35355603
ECCENTRICITY   = .01044502
INCLINATION    = 51.6067
RA_OF_ASC_NODE = 209.5669
ARG_OF_PERICENTER = 20.9361
MEAN_ANOMALY   = 339.5851

EPHEMERIS_TYPE = 0
CLASSIFICATION_TYPE = U
NORAD_CAT_ID   = 39679
ELEMENT_SET_NO = 999
REV_AT_EPOCH   = 63754
BSTAR          = .50224068E-3
MEAN_MOTION_DOT = .20605E-3
MEAN_MOTION_DDOT = 0

CCSDS_OMM_VERS = 2.0
CREATION_DATE  = 
ORIGINATOR     = 

OBJECT_NAME    = ALOS-2
OBJECT_ID      = 2014-029A
CENTER_NAME    = EARTH
REF_FRAME      = TEME
TIME_SYSTEM    = UTC
MEAN_ELEMENT_THEORY = SGP/SGP4

EPOCH          = 2025-11-08T12:29:54.322368
MEAN_MOTION    = 14.79492973
ECCENTRICITY   = .0001237
INCLINATION    = 97.9235
RA_OF_ASC_NODE = 47.8536
ARG_OF_PERICENTER = 102.6101
MEAN_ANOMALY   = 257.5249

EPHEMERIS_TYPE = 0
CLASSIFICATION_TYPE = U
NORAD_CAT_ID   = 39766
ELEMENT_SET_NO = 999
REV_AT_EPOCH   = 61895
BSTAR          = .42089E-3
MEAN_MOTION_DOT = .3095E-4
MEAN_MOTION_DDOT = 0

CCSDS_OMM_VERS = 2.0
CREATION_DATE  = 
ORIGINATOR     = 

OBJECT_NAME    = YAOGAN-29
OBJECT_ID      = 2015-069A
CENTER_NAME    = EARTH
REF_FRAME      = TEME
TIME_SYSTEM    = UTC
MEAN_ELEMENT_THEORY = SGP/SGP4

EPOCH          = 2025-11-08T12:58:20.229024
MEAN_MOTION    = 14.82823610
ECCENTRICITY   = .0002382
INCLINATION    = 98.0255
RA_OF_ASC_NODE = 335.5963
ARG_OF_PERICENTER = 55.3977
MEAN_ANOMALY   = 304.7460

EPHEMERIS_TYPE = 0
CLASSIFICATION_TYPE = U
NORAD_CAT_ID   = 41038
ELEMENT_SET_NO = 999
REV_AT_EPOCH   = 53792
BSTAR          = .95366E-4
MEAN_MOTION_DOT = .717E-5
MEAN_MOTION_DDOT = 0

CCSDS_OMM_VERS = 2.0
CREATION_DATE  = 
ORIGINATOR     = 

OBJECT_NAME    = ASTRO-H (HITOMI)
OBJECT_ID      = 2016-012A
CENTER_NAME    = EARTH
REF_FRAME      = TEME
TIME_SYSTEM    = UTC
MEAN_ELEMENT_THEORY = SGP/SGP4

EPOCH          = 2025-11-07T18:27:36.072864
MEAN_MOTION    = 15.09030061
ECCENTRICITY   = .00098729
INCLINATION    = 31.0003
RA_OF_ASC_NODE = 62.7585
ARG_OF_PERICENTER = 186.2384
MEAN_ANOMALY   = 173.8132

EPHEMERIS_TYPE = 0
CLASSIFICATION_TYPE = U
NORAD_CAT_ID   = 41337
ELEMENT_SET_NO = 999
REV_AT_EPOCH   = 53379
BSTAR          = .31880635E-3
MEAN_MOTION_DOT = .5268E-4
MEAN_MOTION_DDOT = 0

CCSDS_OMM_VERS = 2.0
CREATION_DATE  = 
ORIGINATOR     = 

OBJECT_NAME    = HXMT (HUIYAN)
OBJECT_ID      = 2017-034A
CENTER_NAME    = EARTH
REF_FRAME      = TEME
TIME_SYSTEM    = UTC
MEAN_ELEMENT_THEORY = SGP/SGP4

EPOCH          = 2025-11-08T12:42:58.081824
MEAN_MOTION    = 15.15681693
ECCENTRICITY   = .0033167
INCLINATION    = 43.0155
RA_OF_ASC_NODE = 329.3951
ARG_OF_PERICENTER = 191.6377
MEAN_ANOMALY   = 168.3707

EPHEMERIS_TYPE = 0
CLASSIFICATION_TYPE = U
NORAD_CAT_ID   = 42758
ELEMENT_SET_NO = 999
REV_AT_EPOCH   = 46414
BSTAR          = .43428E-3
MEAN_MOTION_DOT = .8303E-4
MEAN_MOTION_DDOT = 0

CCSDS_OMM_VERS = 2.0
CREATION_DATE  = 
ORIGINATOR     = 

OBJECT_NAME    = CZ-2C R/B
OBJECT_ID      = 2018-054D
CENTER_NAME    = EARTH
REF_FRAME      = TEME
TIME_SYSTEM    = UTC
MEAN_ELEMENT_THEORY = SGP/SGP4

EPOCH          = 2025-11-07T15:19:51.788640
MEAN_MOTION    = 15.66509619
ECCENTRICITY   = .00244332
INCLINATION    = 35.1361
RA_OF_ASC_NODE = 57.5474
ARG_OF_PERICENTER = 163.1078
MEAN_ANOMALY   = 197.0471

EPHEMERIS_TYPE = 0
CLASSIFICATION_TYPE = U
NORAD_CAT_ID   = 43521
ELEMENT_SET_NO = 999
REV_AT_EPOCH   = 40953
BSTAR          = .94460887E-3
MEAN_MOTION_DOT = .104957E-2
MEAN_MOTION_DDOT = 0

CCSDS_OMM_VERS = 2.0
CREATION_DATE  = 
ORIGINATOR     = 

OBJECT_NAME    = SAOCOM 1A
OBJECT_ID      = 2018-076A
CENTER_NAME    = EARTH
REF_FRAME      = TEME
TIME_SYSTEM    = UTC
MEAN_ELEMENT_THEORY = SGP/SGP4

EPOCH          = 2025-11-08T12:16:42.068928
MEAN_MOTION    = 14.82153979
ECCENTRICITY   = .000134
INCLINATION    = 97.8868
RA_OF_ASC_NODE = 137.4297
ARG_OF_PERICENTER = 91.7467
MEAN_ANOMALY   = 268.3900

EPHEMERIS_TYPE = 0
CLASSIFICATION_TYPE = U
NORAD_CAT_ID   = 43641
ELEMENT_SET_NO = 999
REV_AT_EPOCH   = 38341
BSTAR          = .10423E-3
MEAN_MOTION_DOT = .778E-5
MEAN_MOTION_DDOT = 0

CCSDS_OMM_VERS = 2.0
CREATION_DATE  = 
ORIGINATOR     = 

OBJECT_NAME    = H-2A R/B
OBJECT_ID      = 2018-084L
CENTER_NAME    = EARTH
REF_FRAME      = TEME
TIME_SYSTEM    = UTC
MEAN_ELEMENT_THEORY = SGP/SGP4

EPOCH          = 2025-11-08T12:04:51.924000
MEAN_MOTION    = 15.35676403
ECCENTRICITY   = .0029272
INCLINATION    = 98.8801
RA_OF_ASC_NODE = 139.5332
ARG_OF_PERICENTER = 82.3343
MEAN_ANOMALY   = 278.1219

EPHEMERIS_TYPE = 0
CLASSIFICATION_TYPE = U
NORAD_CAT_ID   = 43682
ELEMENT_SET_NO = 999
REV_AT_EPOCH   = 38714
BSTAR          = .63069E-3
MEAN_MOTION_DOT = .22124E-3
MEAN_MOTION_DDOT = 0

CCSDS_OMM_VERS = 2.0
CREATION_DATE  = 
ORIGINATOR     = 

OBJECT_NAME    = SAOCOM 1B
OBJECT_ID      = 2020-059A
CENTER_NAME    = EARTH
REF_FRAME      = TEME
TIME_SYSTEM    = UTC
MEAN_ELEMENT_THEORY = SGP/SGP4

EPOCH          = 2025-11-08T11:24:31.866912
MEAN_MOTION    = 14.82161110
ECCENTRICITY   = .0001477
INCLINATION    = 97.8856
RA_OF_ASC_NODE = 136.4963
ARG_OF_PERICENTER = 88.4252
MEAN_ANOMALY   = 271.7130

EPHEMERIS_TYPE = 0
CLASSIFICATION_TYPE = U
NORAD_CAT_ID   = 46265
ELEMENT_SET_NO = 999
REV_AT_EPOCH   = 28079
BSTAR          = .95628E-4
MEAN_MOTION_DOT = .709E-5
MEAN_MOTION_DDOT = 0

CCSDS_OMM_VERS = 2.0
CREATION_DATE  = 
ORIGINATOR     = 

OBJECT_NAME    = CSS (TIANHE)
OBJECT_ID      = 2021-035A
CENTER_NAME    = EARTH
REF_FRAME      = TEME
TIME_SYSTEM    = UTC
MEAN_ELEMENT_THEORY = SGP/SGP4

EPOCH          = 2025-11-08T12:17:15.895392
MEAN_MOTION    = 15.60680450
ECCENTRICITY   = .0005344
INCLINATION    = 41.4659
RA_OF_ASC_NODE = 224.5310
ARG_OF_PERICENTER = 345.4861
MEAN_ANOMALY   = 14.5824

EPHEMERIS_TYPE = 0
CLASSIFICATION_TYPE = U
NORAD_CAT_ID   = 48274
ELEMENT_SET_NO = 999
REV_AT_EPOCH   = 25868
BSTAR          = .42863E-3
MEAN_MOTION_DOT = .36443E-3
MEAN_MOTION_DDOT = 0

