H-2A R/B                
1 38341U 12025E   25312.42176889  .00006399  00000+0  59320-3 0  9995
2 38341  98.4546 265.0253 0045323 351.5793   8.4659 14.94073772730107
SHIJIAN-16 (SJ-16)      
1 39358U 13057A   25312.53662872  .00003225  00000+0  32161-3 0  9993
2 39358  74.9742  54.3604 0016228  43.2902 316.9557 14.91803363653439
SL-4 R/B                
1 39679U 14021B   25311.93877291  .00020605  00000+0  50224-3 0  9998
2 39679  51.6067 209.5669 0104450  20.9361 339.5851 15.35355603637548
ALOS-2                  
1 39766U 14029A   25312.52076762  .00003095  00000+0  42089-3 0  9997
2 39766  97.9235  47.8536 0001237 102.6101 257.5249 14.79492973618953
YAOGAN-29               
1 41038U 15069A   25312.54051191  .00000717  00000+0  95366-4 0  9993
2 41038  98.0255 335.5963 0002382  55.3977 304.7460 14.82823610537927
ASTRO-H (HITOMI)        
1 41337U 16012A   25311.76916751  .00005268  00000+0  31881-3 0  9996
2 41337  31.0003  62.7585 0009872 186.2384 173.8132 15.09030061533795
HXMT (HUIYAN)           
1 42758U 17034A   25312.52983891  .00008303  00000+0  43428-3 0  9996
2 42758  43.0155 329.3951 0033167 191.6377 168.3707 15.15681693464148
CZ-2C R/B               
1 43521U 18054D   25311.63879385  .00104957  00000+0  94461-3 0  9996
2 43521  35.1361  57.5474 0024433 163.1078 197.0471 15.66509619409538
SAOCOM 1A               
1 43641U 18076A   25312.51159802  .00000778  00000+0  10423-3 0  9998
2 43641  97.8868 137.4297 0001340  91.7467 268.3900 14.82153979383417
H-2A R/B                
1 43682U 18084L   25312.50337875  .00022124  00000+0  63069-3 0  9992
2 43682  98.8801 139.5332 0029272  82.3343 278.1219 15.35676403387143
SAOCOM 1B               
1 46265U 20059A   25312.47536883  .00000709  00000+0  95628-4 0  9995
2 46265  97.8856 136.4963 0001477  88.4252 271.7130 14.82161110280790
CSS (TIANHE)            
1 48274U 21035A   25312.51198953  .00036443  00000+0  42863-3 0  9995
2 48274  41.4659 224.5310 0005344 345.4861  14.5824 15.60680450258688
